start=new Date('2021-12-05T00:00:00.000Z').valueOf();
sats=[{"BSTAR":"-0.00022591000000","PERIAPSIS":"546.436","DECAY_DATE":null,"EPHEMERIS_TYPE":"0","EPOCH":"2021-12-04T18:02:14.282880","MEAN_ELEMENT_THEORY":"SGP4","RCS_SIZE":"LARGE","TIME_SYSTEM":"UTC","PERIOD":"95.592","OBJECT_ID":"2021-017BG","OBJECT_TYPE":"PAYLOAD","NORAD_CAT_ID":"47776","OBJECT_NAME":"STARLINK-2209","MEAN_ANOMALY":"93.2610","LAUNCH_DATE":"2021-03-04","GP_ID":"191103333","SITE":"AFETR","FILE":"3232651","SEMIMAJOR_AXIS":"6925.329","MEAN_MOTION":"15.06406309","ELEMENT_SET_NO":"999","MEAN_MOTION_DOT":"-0.00003645","APOAPSIS":"547.953","RA_OF_ASC_NODE":"356.5085","COUNTRY_CODE":"US","MEAN_MOTION_DDOT":"0.0000000000000","TLE_LINE1":"1 47776U 21017BG  21338.75155420 -.00003645  00000-0 -22591-3 0  9990","ARG_OF_PERICENTER":"266.8254","ECCENTRICITY":"0.00010950","CLASSIFICATION_TYPE":"U","TLE_LINE2":"2 47776  53.0566 356.5085 0001095 266.8254  93.2610 15.06406309 43235","REV_AT_EPOCH":"4323","INCLINATION":"53.0566","REF_FRAME":"TEME","CENTER_NAME":"EARTH"},{"MEAN_ANOMALY":"296.6177","NORAD_CAT_ID":"47777","OBJECT_NAME":"STARLINK-2210","OBJECT_ID":"2021-017BH","PERIOD":"95.593","OBJECT_TYPE":"PAYLOAD","MEAN_ELEMENT_THEORY":"SGP4","RCS_SIZE":"LARGE","TIME_SYSTEM":"UTC","DECAY_DATE":null,"EPHEMERIS_TYPE":"0","EPOCH":"2021-12-04T18:07:33.888576","PERIAPSIS":"546.263","BSTAR":"0.00009867300000","INCLINATION":"53.0557","REF_FRAME":"TEME","CENTER_NAME":"EARTH","CLASSIFICATION_TYPE":"U","TLE_LINE2":"2 47777  53.0557 356.4923 0001412  63.4957 296.6177 15.06390965 43237","REV_AT_EPOCH":"4323","ECCENTRICITY":"0.00014120","MEAN_MOTION_DDOT":"0.0000000000000","TLE_LINE1":"1 47777U 21017BH  21338.75525334  .00001188  00000-0  98673-4 0  9999","ARG_OF_PERICENTER":"63.4957","APOAPSIS":"548.219","COUNTRY_CODE":"US","RA_OF_ASC_NODE":"356.4923","ELEMENT_SET_NO":"999","MEAN_MOTION_DOT":"0.00001188","GP_ID":"191104084","SITE":"AFETR","LAUNCH_DATE":"2021-03-04","SEMIMAJOR_AXIS":"6925.376","FILE":"3232651","MEAN_MOTION":"15.06390965"},{"INCLINATION":"53.0361","REF_FRAME":"TEME","CENTER_NAME":"EARTH","CLASSIFICATION_TYPE":"U","REV_AT_EPOCH":"4323","TLE_LINE2":"2 47778  53.0361 356.4212 0001588  70.0876 290.0284 15.06395381 43234","ECCENTRICITY":"0.00015880","MEAN_MOTION_DDOT":"0.0000000000000","TLE_LINE1":"1 47778U 21017BJ  21338.78842106  .00000210  00000-0  32978-4 0  9993","ARG_OF_PERICENTER":"70.0876","APOAPSIS":"548.327","RA_OF_ASC_NODE":"356.4212","COUNTRY_CODE":"US","ELEMENT_SET_NO":"999","MEAN_MOTION_DOT":"0.00000210","LAUNCH_DATE":"2021-03-04","GP_ID":"191104335","SITE":"AFETR","FILE":"3232651","SEMIMAJOR_AXIS":"6925.363","MEAN_MOTION":"15.06395381","MEAN_ANOMALY":"290.0284","NORAD_CAT_ID":"47778","OBJECT_NAME":"STARLINK-2211","OBJECT_ID":"2021-017BJ","PERIOD":"95.592","OBJECT_TYPE":"PAYLOAD","MEAN_ELEMENT_THEORY":"SGP4","RCS_SIZE":"LARGE","TIME_SYSTEM":"UTC","DECAY_DATE":null,"EPHEMERIS_TYPE":"0","EPOCH":"2021-12-04T18:55:19.579584","PERIAPSIS":"546.128","BSTAR":"0.00003297800000"},{"TLE_LINE1":"1 47779U 21017BK  21338.75749073  .00043999  00000-0  24795-2 0  9997","MEAN_MOTION_DDOT":"0.0000000000000","ARG_OF_PERICENTER":"62.0750","ECCENTRICITY":"0.00010300","CLASSIFICATION_TYPE":"U","TLE_LINE2":"2 47779  53.0561 355.9855 0001030  62.0750 298.0346 15.12793932 43247","REV_AT_EPOCH":"4324","INCLINATION":"53.0561","CENTER_NAME":"EARTH","REF_FRAME":"TEME","SITE":"AFETR","GP_ID":"191103083","LAUNCH_DATE":"2021-03-04","FILE":"3232651","SEMIMAJOR_AXIS":"6905.821","MEAN_MOTION":"15.12793932","ELEMENT_SET_NO":"999","MEAN_MOTION_DOT":"0.00043999","APOAPSIS":"528.397","RA_OF_ASC_NODE":"355.9855","COUNTRY_CODE":"US","OBJECT_TYPE":"PAYLOAD","PERIOD":"95.188","OBJECT_ID":"2021-017BK","NORAD_CAT_ID":"47779","OBJECT_NAME":"STARLINK-2212","MEAN_ANOMALY":"298.0346","BSTAR":"0.00247950000000","PERIAPSIS":"526.975","EPHEMERIS_TYPE":"0","DECAY_DATE":null,"EPOCH":"2021-12-04T18:10:47.199072","MEAN_ELEMENT_THEORY":"SGP4","TIME_SYSTEM":"UTC","RCS_SIZE":"LARGE"},{"OBJECT_ID":"2021-017BL","PERIOD":"95.644","OBJECT_TYPE":"PAYLOAD","MEAN_ANOMALY":"301.2408","NORAD_CAT_ID":"47780","OBJECT_NAME":"STARLINK-2213","PERIAPSIS":"548.656","BSTAR":"-0.00000207730000","MEAN_ELEMENT_THEORY":"SGP4","RCS_SIZE":"LARGE","TIME_SYSTEM":"UTC","DECAY_DATE":null,"EPHEMERIS_TYPE":"0","EPOCH":"2021-12-04T08:16:36.746400","ECCENTRICITY":"0.00015230","MEAN_MOTION_DDOT":"0.0000000000000","TLE_LINE1":"1 47780U 21017BL  21338.34486975 -.00000310  00000-0 -20773-5 0  9990","ARG_OF_PERICENTER":"58.8730","INCLINATION":"53.0574","REF_FRAME":"TEME","CENTER_NAME":"EARTH","CLASSIFICATION_TYPE":"U","REV_AT_EPOCH":"4320","TLE_LINE2":"2 47780  53.0574 358.3616 0001523  58.8730 301.2408 15.05585326 43203","ELEMENT_SET_NO":"999","MEAN_MOTION_DOT":"-0.00000310","GP_ID":"191102834","SITE":"AFETR","LAUNCH_DATE":"2021-03-04","SEMIMAJOR_AXIS":"6927.847","FILE":"3232651","MEAN_MOTION":"15.05585326","APOAPSIS":"550.767","RA_OF_ASC_NODE":"358.3616","COUNTRY_CODE":"US"},{"MEAN_MOTION_DDOT":"0.0000000000000","TLE_LINE1":"1 47781U 21017BM  21338.78105091 -.00001918  00000-0 -10993-3 0  9992","ARG_OF_PERICENTER":"62.5277","ECCENTRICITY":"0.00015530","CLASSIFICATION_TYPE":"U","TLE_LINE2":"2 47781  53.0571 356.3702 0001553  62.5277 297.5869 15.06392335 43223","REV_AT_EPOCH":"4322","INCLINATION":"53.0571","REF_FRAME":"TEME","CENTER_NAME":"EARTH","SITE":"AFETR","GP_ID":"191103585","LAUNCH_DATE":"2021-03-04","FILE":"3232651","MEAN_MOTION":"15.06392335","SEMIMAJOR_AXIS":"6925.372","ELEMENT_SET_NO":"999","MEAN_MOTION_DOT":"-0.00001918","APOAPSIS":"548.313","RA_OF_ASC_NODE":"356.3702","COUNTRY_CODE":"US","PERIOD":"95.593","OBJECT_ID":"2021-017BM","OBJECT_TYPE":"PAYLOAD","NORAD_CAT_ID":"47781","OBJECT_NAME":"STARLINK-2223","MEAN_ANOMALY":"297.5869","BSTAR":"-0.00010993000000","PERIAPSIS":"546.162","DECAY_DATE":null,"EPHEMERIS_TYPE":"0","EPOCH":"2021-12-04T18:44:42.798624","MEAN_ELEMENT_THEORY":"SGP4","TIME_SYSTEM":"UTC","RCS_SIZE":"LARGE"},{"PERIAPSIS":"546.306","BSTAR":"-0.00005123100000","TIME_SYSTEM":"UTC","RCS_SIZE":"LARGE","MEAN_ELEMENT_THEORY":"SGP4","EPOCH":"2021-12-04T20:46:47.771616","EPHEMERIS_TYPE":"0","DECAY_DATE":null,"OBJECT_TYPE":"PAYLOAD","PERIOD":"95.593","OBJECT_ID":"2021-018A","MEAN_ANOMALY":"289.7353","OBJECT_NAME":"STARLINK-2257","NORAD_CAT_ID":"47787","MEAN_MOTION_DOT":"-0.00001044","ELEMENT_SET_NO":"999","FILE":"3232651","MEAN_MOTION":"15.06388745","SEMIMAJOR_AXIS":"6925.383","LAUNCH_DATE":"2021-03-11","GP_ID":"191103836","SITE":"AFETR","COUNTRY_CODE":"US","RA_OF_ASC_NODE":"35.9945","APOAPSIS":"548.191","ECCENTRICITY":"0.00013610","ARG_OF_PERICENTER":"70.3783","TLE_LINE1":"1 47787U 21018A   21338.86583069 -.00001044  00000-0 -51231-4 0  9994","MEAN_MOTION_DDOT":"0.0000000000000","CENTER_NAME":"EARTH","REF_FRAME":"TEME","INCLINATION":"53.0549","TLE_LINE2":"2 47787  53.0549  35.9945 0001361  70.3783 289.7353 15.06388745 42094","REV_AT_EPOCH":"4209","CLASSIFICATION_TYPE":"U"},{"RA_OF_ASC_NODE":"10.7431","COUNTRY_CODE":"US","APOAPSIS":"555.885","SEMIMAJOR_AXIS":"6932.853","FILE":"3232651","MEAN_MOTION":"15.03954622","SITE":"AFETR","GP_ID":"191102584","LAUNCH_DATE":"2021-03-11","MEAN_MOTION_DOT":"0.00000399","ELEMENT_SET_NO":"999","REV_AT_EPOCH":"4246","TLE_LINE2":"2 47788  53.0607  10.7431 0001682  63.8024 296.3137 15.03954622 42467","CLASSIFICATION_TYPE":"U","CENTER_NAME":"EARTH","REF_FRAME":"TEME","INCLINATION":"53.0607","ARG_OF_PERICENTER":"63.8024","TLE_LINE1":"1 47788U 21018B   21338.86453578  .00000399  00000-0  48328-4 0  9999","MEAN_MOTION_DDOT":"0.0000000000000","ECCENTRICITY":"0.00016820","EPOCH":"2021-12-04T20:44:55.891392","EPHEMERIS_TYPE":"0","DECAY_DATE":null,"TIME_SYSTEM":"UTC","RCS_SIZE":"LARGE","MEAN_ELEMENT_THEORY":"SGP4","BSTAR":"0.00004832800000","PERIAPSIS":"553.552","OBJECT_NAME":"STARLINK-2314","NORAD_CAT_ID":"47788","MEAN_ANOMALY":"296.3137","OBJECT_TYPE":"PAYLOAD","PERIOD":"95.748","OBJECT_ID":"2021-018B"},{"GP_ID":"191103334","LAUNCH_DATE":"2021-03-11","SITE":"AFETR","FILE":"3232651","SEMIMAJOR_AXIS":"6925.366","MEAN_MOTION":"15.06394348","ELEMENT_SET_NO":"999","MEAN_MOTION_DOT":"-0.00001542","APOAPSIS":"548.176","RA_OF_ASC_NODE":"18.0946","COUNTRY_CODE":"US","TLE_LINE1":"1 47789U 21018C   21338.39587067 -.00001542  00000-0 -84676-4 0  9998","MEAN_MOTION_DDOT":"0.0000000000000","ARG_OF_PERICENTER":"77.4610","ECCENTRICITY":"0.00013640","CLASSIFICATION_TYPE":"U","REV_AT_EPOCH":"4231","TLE_LINE2":"2 47789  53.0577  18.0946 0001364  77.4610 282.6532 15.06394348 42312","INCLINATION":"53.0577","CENTER_NAME":"EARTH","REF_FRAME":"TEME","BSTAR":"-0.00008467600000","PERIAPSIS":"546.286","EPHEMERIS_TYPE":"0","DECAY_DATE":null,"EPOCH":"2021-12-04T09:30:03.225888","MEAN_ELEMENT_THEORY":"SGP4","RCS_SIZE":"LARGE","TIME_SYSTEM":"UTC","OBJECT_TYPE":"PAYLOAD","OBJECT_ID":"2021-018C","PERIOD":"95.592","NORAD_CAT_ID":"47789","OBJECT_NAME":"STARLINK-2315","MEAN_ANOMALY":"282.6532"},{"BSTAR":"0.00002472200000","PERIAPSIS":"546.032","EPOCH":"2021-12-04T21:38:32.696448","DECAY_DATE":null,"EPHEMERIS_TYPE":"0","TIME_SYSTEM":"UTC","RCS_SIZE":"LARGE","MEAN_ELEMENT_THEORY":"SGP4","PERIOD":"95.593","OBJECT_ID":"2021-018D","OBJECT_TYPE":"PAYLOAD","OBJECT_NAME":"STARLINK-2319","NORAD_CAT_ID":"47790","MEAN_ANOMALY":"310.1652","FILE":"3232651","SEMIMAJOR_AXIS":"6925.370","MEAN_MOTION":"15.06393163","SITE":"AFETR","GP_ID":"191104085","LAUNCH_DATE":"2021-03-11","MEAN_MOTION_DOT":"0.00000087","ELEMENT_SET_NO":"999","COUNTRY_CODE":"US","RA_OF_ASC_NODE":"5.8254","APOAPSIS":"548.437","ARG_OF_PERICENTER":"49.9489","MEAN_MOTION_DDOT":"0.0000000000000","TLE_LINE1":"1 47790U 21018D   21338.90176732  .00000087  00000-0  24722-4 0  9997","ECCENTRICITY":"0.00017360","REV_AT_EPOCH":"4253","TLE_LINE2":"2 47790  53.0565   5.8254 0001736  49.9489 310.1652 15.06393163 42536","CLASSIFICATION_TYPE":"U","REF_FRAME":"TEME","CENTER_NAME":"EARTH","INCLINATION":"53.0565"}];
